CCSDS_OMM_VERS = 2.0
CREATION_DATE  = 
ORIGINATOR     = 

OBJECT_NAME    = STARLINK-35865
OBJECT_ID      = 2026-033F
CENTER_NAME    = EARTH
REF_FRAME      = TEME
TIME_SYSTEM    = UTC
MEAN_ELEMENT_THEORY = SGP/SGP4

EPOCH          = 2026-03-10T13:47:10.618080
MEAN_MOTION    = 15.82341893
ECCENTRICITY   = .0002991
INCLINATION    = 42.9983
RA_OF_ASC_NODE = 266.0494
ARG_OF_PERICENTER = 224.3939
MEAN_ANOMALY   = 135.6693

EPHEMERIS_TYPE = 0
CLASSIFICATION_TYPE = U
NORAD_CAT_ID   = 67826
ELEMENT_SET_NO = 999
REV_AT_EPOCH   = 476
BSTAR          = .24765E-2
MEAN_MOTION_DOT = .564953E-2
MEAN_MOTION_DDOT = 0

CCSDS_OMM_VERS = 2.0
CREATION_DATE  = 
ORIGINATOR     = 

OBJECT_NAME    = STARLINK-36289
OBJECT_ID      = 2026-033G
CENTER_NAME    = EARTH
REF_FRAME      = TEME
TIME_SYSTEM    = UTC
MEAN_ELEMENT_THEORY = SGP/SGP4

EPOCH          = 2026-03-10T13:46:05.844000
MEAN_MOTION    = 15.82404719
ECCENTRICITY   = .0003836
INCLINATION    = 42.9974
RA_OF_ASC_NODE = 266.0430
ARG_OF_PERICENTER = 252.6928
MEAN_ANOMALY   = 107.3524

EPHEMERIS_TYPE = 0
CLASSIFICATION_TYPE = U
NORAD_CAT_ID   = 67827
ELEMENT_SET_NO = 999
REV_AT_EPOCH   = 476
BSTAR          = .34672E-2
MEAN_MOTION_DOT = .817265E-2
MEAN_MOTION_DDOT = 0

CCSDS_OMM_VERS = 2.0
CREATION_DATE  = 
ORIGINATOR     = 

OBJECT_NAME    = STARLINK-36670
OBJECT_ID      = 2026-033H
CENTER_NAME    = EARTH
REF_FRAME      = TEME
TIME_SYSTEM    = UTC
MEAN_ELEMENT_THEORY = SGP/SGP4

EPOCH          = 2026-03-10T13:45:01.361952
MEAN_MOTION    = 15.82229040
ECCENTRICITY   = .0002024
INCLINATION    = 42.9980
RA_OF_ASC_NODE = 266.0373
ARG_OF_PERICENTER = 271.2146
MEAN_ANOMALY   = 88.8493

EPHEMERIS_TYPE = 0
CLASSIFICATION_TYPE = U
NORAD_CAT_ID   = 67828
ELEMENT_SET_NO = 999
REV_AT_EPOCH   = 476
BSTAR          = .18964E-2
MEAN_MOTION_DOT = .423125E-2
MEAN_MOTION_DDOT = 0

CCSDS_OMM_VERS = 2.0
CREATION_DATE  = 
ORIGINATOR     = 

OBJECT_NAME    = STARLINK-36144
OBJECT_ID      = 2026-033J
CENTER_NAME    = EARTH
REF_FRAME      = TEME
TIME_SYSTEM    = UTC
MEAN_ELEMENT_THEORY = SGP/SGP4

EPOCH          = 2026-03-10T13:43:56.364096
MEAN_MOTION    = 15.82399453
ECCENTRICITY   = .0003353
INCLINATION    = 42.9977
RA_OF_ASC_NODE = 266.0309
ARG_OF_PERICENTER = 263.3811
MEAN_ANOMALY   = 96.6679

EPHEMERIS_TYPE = 0
CLASSIFICATION_TYPE = U
NORAD_CAT_ID   = 67829
ELEMENT_SET_NO = 999
REV_AT_EPOCH   = 476
BSTAR          = .34023E-2
MEAN_MOTION_DOT = .800181E-2
MEAN_MOTION_DDOT = 0

CCSDS_OMM_VERS = 2.0
CREATION_DATE  = 
ORIGINATOR     = 

OBJECT_NAME    = STARLINK-36611
OBJECT_ID      = 2026-033K
CENTER_NAME    = EARTH
REF_FRAME      = TEME
TIME_SYSTEM    = UTC
MEAN_ELEMENT_THEORY = SGP/SGP4

EPOCH          = 2026-03-10T13:42:51.857856
MEAN_MOTION    = 15.82388494
ECCENTRICITY   = .0003761
INCLINATION    = 42.9978
RA_OF_ASC_NODE = 266.0248
ARG_OF_PERICENTER = 250.8710
MEAN_ANOMALY   = 109.1755

EPHEMERIS_TYPE = 0
CLASSIFICATION_TYPE = U
NORAD_CAT_ID   = 67830
ELEMENT_SET_NO = 999
REV_AT_EPOCH   = 476
BSTAR          = .34893E-2
MEAN_MOTION_DOT = .82235E-2
MEAN_MOTION_DDOT = 0

CCSDS_OMM_VERS = 2.0
CREATION_DATE  = 
ORIGINATOR     = 

OBJECT_NAME    = STARLINK-36661
OBJECT_ID      = 2026-033L
CENTER_NAME    = EARTH
REF_FRAME      = TEME
TIME_SYSTEM    = UTC
MEAN_ELEMENT_THEORY = SGP/SGP4

EPOCH          = 2026-03-10T00:03:35.155872
MEAN_MOTION    = 15.82108507
ECCENTRICITY   = .00026016
INCLINATION    = 42.9981
RA_OF_ASC_NODE = 269.5016
ARG_OF_PERICENTER = 265.6555
MEAN_ANOMALY   = 94.4019

EPHEMERIS_TYPE = 0
CLASSIFICATION_TYPE = U
NORAD_CAT_ID   = 67831
ELEMENT_SET_NO = 999
REV_AT_EPOCH   = 467
BSTAR          = .13607558E-2
MEAN_MOTION_DOT = .29735E-2
MEAN_MOTION_DDOT = 0

CCSDS_OMM_VERS = 2.0
CREATION_DATE  = 
ORIGINATOR     = 

OBJECT_NAME    = STARLINK-36662
OBJECT_ID      = 2026-033M
CENTER_NAME    = EARTH
REF_FRAME      = TEME
TIME_SYSTEM    = UTC
MEAN_ELEMENT_THEORY = SGP/SGP4

EPOCH          = 2026-03-10T13:41:16.996704
MEAN_MOTION    = 15.84815028
ECCENTRICITY   = .0003901
INCLINATION    = 42.9964
RA_OF_ASC_NODE = 265.1061
ARG_OF_PERICENTER = 257.3460
MEAN_ANOMALY   = 102.6976

EPHEMERIS_TYPE = 0
CLASSIFICATION_TYPE = U
NORAD_CAT_ID   = 67832
ELEMENT_SET_NO = 999
REV_AT_EPOCH   = 477
BSTAR          = .33084E-2
MEAN_MOTION_DOT = .88019E-2
MEAN_MOTION_DDOT = 0

CCSDS_OMM_VERS = 2.0
CREATION_DATE  = 
ORIGINATOR     = 

OBJECT_NAME    = STARLINK-36659
OBJECT_ID      = 2026-033N
CENTER_NAME    = EARTH
REF_FRAME      = TEME
TIME_SYSTEM    = UTC
MEAN_ELEMENT_THEORY = SGP/SGP4

EPOCH          = 2026-03-10T13:40:42.281184
MEAN_MOTION    = 15.82387104
ECCENTRICITY   = .0004103
INCLINATION    = 42.9975
RA_OF_ASC_NODE = 266.0122
ARG_OF_PERICENTER = 248.7864
MEAN_ANOMALY   = 111.2570

EPHEMERIS_TYPE = 0
CLASSIFICATION_TYPE = U
NORAD_CAT_ID   = 67833
ELEMENT_SET_NO = 999
REV_AT_EPOCH   = 476
BSTAR          = .34331E-2
MEAN_MOTION_DOT = .807646E-2
MEAN_MOTION_DDOT = 0

CCSDS_OMM_VERS = 2.0
CREATION_DATE  = 
ORIGINATOR     = 

OBJECT_NAME    = STARLINK-36655
OBJECT_ID      = 2026-033P
CENTER_NAME    = EARTH
REF_FRAME      = TEME
TIME_SYSTEM    = UTC
MEAN_ELEMENT_THEORY = SGP/SGP4

EPOCH          = 2026-03-10T13:39:37.717056
MEAN_MOTION    = 15.82308291
ECCENTRICITY   = .0002278
INCLINATION    = 42.9979
RA_OF_ASC_NODE = 266.0061
ARG_OF_PERICENTER = 262.1726
MEAN_ANOMALY   = 97.8887

EPHEMERIS_TYPE = 0
CLASSIFICATION_TYPE = U
NORAD_CAT_ID   = 67834
ELEMENT_SET_NO = 999
REV_AT_EPOCH   = 476
BSTAR          = .26951E-2
MEAN_MOTION_DOT = .617728E-2
MEAN_MOTION_DDOT = 0

CCSDS_OMM_VERS = 2.0
CREATION_DATE  = 
ORIGINATOR     = 

OBJECT_NAME    = STARLINK-36657
OBJECT_ID      = 2026-033Q
CENTER_NAME    = EARTH
REF_FRAME      = TEME
TIME_SYSTEM    = UTC
MEAN_ELEMENT_THEORY = SGP/SGP4

EPOCH          = 2026-03-10T13:38:32.947296
MEAN_MOTION    = 15.82298786
ECCENTRICITY   = .0002318
INCLINATION    = 42.9980
RA_OF_ASC_NODE = 266.0004
ARG_OF_PERICENTER = 269.9878
MEAN_ANOMALY   = 90.0728

EPHEMERIS_TYPE = 0
CLASSIFICATION_TYPE = U
NORAD_CAT_ID   = 67835
ELEMENT_SET_NO = 999
REV_AT_EPOCH   = 476
BSTAR          = .25696E-2
MEAN_MOTION_DOT = .586523E-2
MEAN_MOTION_DDOT = 0

CCSDS_OMM_VERS = 2.0
CREATION_DATE  = 
ORIGINATOR     = 

OBJECT_NAME    = STARLINK-36650
OBJECT_ID      = 2026-033R
CENTER_NAME    = EARTH
REF_FRAME      = TEME
TIME_SYSTEM    = UTC
MEAN_ELEMENT_THEORY = SGP/SGP4

EPOCH          = 2026-03-10T16:39:40.760928
MEAN_MOTION    = 15.80418741
ECCENTRICITY   = .000429
INCLINATION    = 42.9978
RA_OF_ASC_NODE = 265.2221
ARG_OF_PERICENTER = 280.1461
MEAN_ANOMALY   = 79.8927

EPHEMERIS_TYPE = 0
CLASSIFICATION_TYPE = U
NORAD_CAT_ID   = 67836
ELEMENT_SET_NO = 999
REV_AT_EPOCH   = 478
BSTAR          = -.26106E-4
MEAN_MOTION_DOT = -.5627E-4
MEAN_MOTION_DDOT = 0

CCSDS_OMM_VERS = 2.0
CREATION_DATE  = 
ORIGINATOR     = 

OBJECT_NAME    = STARLINK-36649
OBJECT_ID      = 2026-033S
CENTER_NAME    = EARTH
REF_FRAME      = TEME
TIME_SYSTEM    = UTC
MEAN_ELEMENT_THEORY = SGP/SGP4

EPOCH          = 2026-03-10T13:36:23.481216
MEAN_MOTION    = 15.82389294
ECCENTRICITY   = .0002652
INCLINATION    = 42.9976
RA_OF_ASC_NODE = 265.9873
ARG_OF_PERICENTER = 258.1962
MEAN_ANOMALY   = 101.8613

EPHEMERIS_TYPE = 0
CLASSIFICATION_TYPE = U
NORAD_CAT_ID   = 67837
ELEMENT_SET_NO = 999
REV_AT_EPOCH   = 476
BSTAR          = .343E-2
MEAN_MOTION_DOT = .807012E-2
MEAN_MOTION_DDOT = 0

